SL-16 R/B               
1 23405U 94077B   26201.33266091  .00000196  00000+0  12477-3 0  9991
2 23405  70.9821  73.4308 0004166 299.5836  60.4871 14.15575383635009
ARIANE 40+ R/B          
1 23561U 95021B   26201.19468546  .00000115  00000+0  50457-4 0  9999
2 23561  98.4397 270.7904 0007945 103.9800 278.4460 14.39849215638312
SL-16 R/B               
1 23705U 95058B   26201.41669031  .00000275  00000+0  16477-3 0  9996
2 23705  71.0205 261.5926 0014701 276.1003  83.8445 14.15511804586637
SL-16 R/B               
1 24298U 96051B   26201.38726107  .00000138  00000+0  10147-3 0  9998
2 24298  70.7641 254.3896 0018151 291.3749  68.5434 14.12458573540380
ORBVIEW 2 (SEASTAR)     
1 24883U 97037A   26201.40570404  .00000104  00000+0  52391-4 0  9994
2 24883  98.8720   9.3506 0002890  50.2360 309.9079 14.35568253527518
SL-16 R/B               
1 25400U 98043G   26201.33920068  .00000006  00000+0  21564-4 0  9994
2 25400  98.8381 155.7870 0009773 356.7585   3.3530 14.26073218457899
SL-16 R/B               
1 25407U 98045B   26201.36249742  .00000081  00000+0  65207-4 0  9994
2 25407  71.0100 262.5617 0007910 198.9843 161.0987 14.16205216445886
ISS (ZARYA)             
1 25544U 98067A   26201.47589808  .00004742  00000+0  93971-4 0  9999
2 25544  51.6314 135.3560 0006828 318.0948  41.9517 15.49061331576910
CZ-4B R/B               
1 25732U 99025C   26201.35589914  .00000002  00000+0  21769-4 0  9999
2 25732  98.6468 242.3569 0036379 324.6253  45.4973 14.18288220406970
OKEAN-O                 
1 25860U 99039A   26201.05943298  .00000263  00000+0  41156-4 0  9993
2 25860  97.9296 259.4769 0000882  98.3417 261.7896 14.80500540453971
SL-16 R/B               
1 25861U 99039B   26201.11825262  .00000192  00000+0  31071-4 0  9997
2 25861  97.9818 259.8842 0014719 182.1589 177.9562 14.81873457456471
DELTA 2 R/B             
1 25876U 99041E   26201.15936372  .00000873  00000+0  17946-3 0  9995
2 25876  51.7614 132.0599 0501486  19.4111 342.5189 14.12097369381741
HELIOS 1B               
1 25977U 99064A   26201.32946681  .00000659  00000+0  78001-4 0  9997
2 25977  98.1577 107.4244 0001686  49.0308 311.1053 14.88082592704985
TERRA                   
1 25994U 99068A   26201.58940008  .00000183  00000+0  46306-4 0  9990
2 25994  97.9437 249.8082 0003599 112.2250  31.9400 14.61126180414480
SL-16 R/B               
1 26070U 00006B   26201.34160782  .00000197  00000+0  12441-3 0  9994
2 26070  71.0007 178.9117 0017413 332.8546  27.1665 14.15838850367335
TITAN 4B R/B            
1 26474U 00047B   26201.57086557  .00001416  00000+0  92549-4 0  9992
2 26474  67.9873  26.5919 0045712 253.3714 106.2414 15.10348993412975
ENVISAT                 
1 27386U 02009A   26201.36531684  .00000032  00000+0  24103-4 0  9992
2 27386  98.3848 151.9469 0001312  82.4038  82.5292 14.39071437278256
IDEFIX & ARIANE 42P R/B 
1 27422U 02021B   26201.34007892  .00000099  00000+0  54230-4 0  9991
2 27422  98.5941 138.4649 0012223 151.6435 208.5415 14.31095168262996
AQUA                    
1 27424U 02022A   26201.59890731  .00000387  00000+0  86838-4 0  9992
2 27424  98.4300 171.5543 0001306 102.1203  27.8992 14.62133097288157
CZ-4B R/B               
1 27432U 02024C   26201.40405970 -.00000004  00000+0  20576-4 0  9994
2 27432  98.8681 254.0052 0050212   7.2418   3.9437 14.14568653248003
MIDORI II (ADEOS-II)    
1 27597U 02056A   26201.31862313  .00000110  00000+0  61090-4 0  9992
2 27597  98.7898 160.8638 0001272  34.1296 325.9967 14.29364535229242
H-2A R/B                
1 27601U 02056E   26201.38955772  .00000137  00000+0  62298-4 0  9997
2 27601  98.3331 156.8572 0071147 125.6300  44.7578 14.33835630233128
CZ-4B R/B               
1 28059U 03049C   26201.44403673  .00000144  00000+0  44714-4 0  9994
2 28059  98.6914 201.6171 0047961 185.1551 174.9157 14.55118117205908
CZ-2C R/B               
1 28222U 04012C   26201.16697619  .00107047  00000+0  42592-3 0  9992
2 28222  97.7034 280.8505 0010852 177.0992 183.0343 15.86280146225111
SL-16 R/B               
1 28353U 04021B   26201.60800604 -.00000168  00000+0 -62443-4 0  9992
2 28353  71.0029 313.5496 0006138 220.3025 139.7643 14.14615965141635
CZ-4B R/B               
1 28415U 04035C   26201.07684922  .00003949  00000+0  13261-3 0  9991
2 28415  97.3354 233.7867 0029640 214.6016 145.3297 15.31030176200156
CZ-2C R/B               
1 28480U 04046B   26201.35682713  .00000060  00000+0  36969-4 0  9994
2 28480  98.1910 108.0590 0140393 122.2110 239.2773 14.27034266127428
ARIANE 5 R/B            
1 28499U 04049H   26201.47302977  .00000297  00000+0  39650-4 0  9993
2 28499  98.2747  15.0181 0082510 280.9028  78.2910 14.85482427165501
CZ-2D R/B               
1 28738U 05024B   26201.01402848  .00043179  00000+0  31493-3 0  9993
2 28738  97.3471 222.1705 0003254 179.1862 180.9408 15.73169832160493
ALOS (DAICHI)           
1 28931U 06002A   26201.37393827  .00000579  00000+0  10452-3 0  9999
2 28931  98.1340 156.8427 0000935 107.2445 252.8863 14.70108156 92977
